[{"OBJECT_NAME":"LEMUR-2-TEODOR","OBJECT_ID":"2025-276DG","EPOCH":"2026-03-09T22:32:17.371680","MEAN_MOTION":15.19870523,"ECCENTRICITY":0.00021641,"INCLINATION":97.4221,"RA_OF_ASC_NODE":144.2904,"ARG_OF_PERICENTER":115.2922,"MEAN_ANOMALY":244.8537,"EPHEMERIS_TYPE":0,"CLASSIFICATION_TYPE":"U","NORAD_CAT_ID":66768,"ELEMENT_SET_NO":999,"REV_AT_EPOCH":1536,"BSTAR":0.00038251651,"MEAN_MOTION_DOT":8.143e-5,"MEAN_MOTION_DDOT":0},{"OBJECT_NAME":"PEGASUS DEB","OBJECT_ID":"1994-029AES","EPOCH":"2026-03-06T17:32:52.876320","MEAN_MOTION":15.2736598,"ECCENTRICITY":0.00781089,"INCLINATION":81.9406,"RA_OF_ASC_NODE":336.1125,"ARG_OF_PERICENTER":102.4632,"MEAN_ANOMALY":258.5359,"EPHEMERIS_TYPE":0,"CLASSIFICATION_TYPE":"U","NORAD_CAT_ID":39307,"ELEMENT_SET_NO":999,"REV_AT_EPOCH":76792,"BSTAR":0.0021826707,"MEAN_MOTION_DOT":0.00064449,"MEAN_MOTION_DDOT":0}]
